satname,norad_id,inclination_deg,eccentricity,mean_motion_rev_per_day,perigee_km,apogee_km,l1,l2
STARLINK-1527,46048,53.1629,0.0001316,15.30184677,474.3589143638137,476.1627286704379,1 46048U 20055X   26095.96235469 -.00000280  00000+0  26713-5 0  9994,2 46048  53.1629 347.2609 0001316  80.9953 279.1197 15.30184677313225
STARLINK-1540,46051,53.1593,9.92e-05,15.30206305,474.516393232655,475.8760945482418,1 46051U 20055AA  26096.11614343  .00011016  00000+0  38341-3 0  9994,2 46051  53.1593 346.4517 0000992  80.5029 279.6084 15.30206305313286
STARLINK-1541,46052,53.1597,0.0001625,15.32975582,465.8278635235438,468.05251360982857,1 46052U 20055AB  26096.25002315  .01439217  00000+0  40282-1 0  9993,2 46052  53.1597 345.8511 0001625 100.4217 346.6272 15.32975582  5805
STARLINK-1543,46053,53.1597,0.0001177,15.30189513,474.4397386658111,476.0530251139089,1 46053U 20055AC  26095.91599067 -.00000287  00000+0  24493-5 0  9992,2 46053  53.1597 347.4518 0001177 102.8351 257.2781 15.30189513313249
STARLINK-1548,46054,53.1603,0.0001181,15.30181156,474.4619472597424,476.08072230841844,1 46054U 20055AD  26096.11931179 -.00002312  00000+0 -66005-4 0  9996,2 46054  53.1603 346.5050 0001181  79.9829 280.1305 15.30181156313273
STARLINK-1554,46055,53.16,0.0001107,15.3018701,474.4951851245396,476.01252585994644,1 46055U 20055AE  26095.92128110 -.00000458  00000+0 -33288-5 0  9995,2 46055  53.1600 347.5484 0001107 103.0952 257.0172 15.30187010313244
STARLINK-1564,46058,53.1622,0.0001532,15.30197789,474.17173652632846,476.27160562314566,1 46058U 20055AH  26095.91922288 -.00000705  00000+0 -11681-4 0  9992,2 46058  53.1622 347.8958 0001532 103.9187 256.1985 15.30197789313236
STARLINK-1570,46059,53.1602,0.0001321,15.30178942,474.372609418353,476.1832816469632,1 46059U 20055AJ  26096.07928430 -.00002882  00000+0 -85285-4 0  9995,2 46059  53.1602 346.6914 0001321  82.3970 277.7181 15.30178942313226
STARLINK-1572,46060,53.1608,0.0001308,15.30184101,474.3661167185319,476.1589660385571,1 46060U 20055AK  26096.09616949 -.00001149  00000+0 -26675-4 0  9991,2 46060  53.1608 346.8164 0001308  87.7006 272.4145 15.30184101313234
STARLINK-1573,46061,53.1578,8.58e-05,15.30214849,474.5827195368829,475.75874714392376,1 46061U 20055AL  26096.12879535  .00021341  00000+0  73025-3 0  9992,2 46061  53.1578 346.4146 0000858  94.0718 266.0381 15.30214849313275
STARLINK-1577,46063,53.1618,0.0001214,15.30228755,474.29722699860395,475.9612000352463,1 46063U 20055AN  26096.08977537 -.00005214  00000+0 -16389-3 0  9993,2 46063  53.1618 346.5614 0001214  94.5945 265.5194 15.30228755313263
STARLINK-1583,46064,53.16,0.0001313,15.30183079,474.3657411804161,476.1654447013225,1 46064U 20055AP  26096.12562699 -.00001595  00000+0 -41756-4 0  9993,2 46064  53.1600 346.4299 0001313  85.9325 274.1826 15.30183079313266
STARLINK-1536,46070,53.0683,0.0001379,15.13296532,525.2028918935885,527.1070956254671,1 46070U 20055AV  26096.25002315  .00018138  00000+0  10213-2 0  9999,2 46070  53.0683 332.6553 0001379 110.0025 193.2759 15.13296532  5783
STARLINK-1542,46073,53.052,0.0001375,15.0638789,546.2964330626428,548.2009141228809,1 46073U 20055AY  26096.07766733  .00001287  00000+0  10532-3 0  9995,2 46073  53.0520 333.6682 0001375  98.1941 261.9204 15.06387890313431
STARLINK-1549,46074,53.053,0.0001348,15.18878971,508.2989885110701,510.15582195472143,1 46074U 20055AZ  26096.25002315  .01047261  00000+0  46001-1 0  9996,2 46074  53.0530 332.5570 0001348  91.9417  18.8424 15.18878971  5772
STARLINK-1551,46075,53.1017,0.0001078,15.17529279,512.5676544269654,514.0534505192791,1 46075U 20055BA  26096.25002315  .01465256  00000+0  65926-1 0  9992,2 46075  53.1017 332.6753 0001078 112.7510 165.2501 15.17529279  5781
STARLINK-1552,46076,53.103,0.0001539,15.17800462,511.42920458391654,513.5501394735675,1 46076U 20055BB  26096.25002315  .01454676  00000+0  64992-1 0  9999,2 46076  53.1030 332.6636 0001539  98.3938  45.6174 15.17800462  5785
STARLINK-1559,46077,53.0264,0.0003132,15.32541296,466.08899977593774,470.37756612117664,1 46077U 20055BC  26095.84830689  .00064170  00000+0  20081-2 0  9994,2 46077  53.0264 307.2574 0003132 144.5596 215.5613 15.32541296313746
STARLINK-1566,46079,53.1034,0.0001606,15.18117633,510.42341387608303,512.6363748825579,1 46079U 20055BE  26096.25002315  .01420518  00000+0  63029-1 0  9990,2 46079  53.1034 332.6506 0001606  63.6097 347.4861 15.18117633  5782
STARLINK-1568,46080,53.0609,0.0004748,15.48779581,417.06721661361007,423.52300774733794,1 46080U 20055BF  26095.74631158  .00048597  00000+0  89243-3 0  9998,2 46080  53.0609 263.6452 0004748 216.5435 143.5249 15.48779581314382
STARLINK-1578,46082,53.0697,7.23e-05,15.14226851,522.8277970809077,523.8257487424717,1 46082U 20055BH  26096.25002315  .00049140  00000+0  26566-2 0  9997,2 46082  53.0697 332.6482 0000723 125.0231 199.8085 15.14226851  5781
STARLINK-1579,46083,53.0988,0.0002022,15.16973801,513.5989765440618,516.3865582219914,1 46083U 20055BJ  26096.25002315  .01441969  00000+0  66015-1 0  9996,2 46083  53.0988 332.6786 0002022  78.6623  36.5914 15.16973801  5788
STARLINK-1585,46117,53.026,0.0003309,16.17521583,224.10420391839398,228.47501344802004,1 46117U 20057A   26096.70949159  .01890568  37376-2  12347-2 0  9994,2 46117  53.0260 103.2590 0003309  48.8686 311.2636 16.17521583311514
STARLINK-1593,46119,53.0375,0.0006139,15.8682486,307.0847210510692,315.29787833743376,1 46119U 20057C   26096.25002315  .00257882  00000+0  95786-3 0  9995,2 46119  53.0375 132.0796 0006139  29.0407 319.0562 15.86824860  5677
STARLINK-1621,46127,53.0383,0.0007177,15.91595018,293.0275889738132,302.61025610502656,1 46127U 20057L   26096.25002315  .00374452  64217-4  11326-2 0  9999,2 46127  53.0383 104.6609 0007177  30.6326 266.9980 15.91595018  5988
STARLINK-1622,46128,53.0206,0.0002249,15.69592187,358.5484858328855,361.57932860095207,1 46128U 20057M   26096.25432857  .00112131  00000+0  92224-3 0  9994,2 46128  53.0206  88.4778 0002249 359.0786   1.0225 15.69592187311688
STARLINK-1623,46129,53.0462,0.0003717,15.58844704,388.4834379851227,393.5156140785748,1 46129U 20057N   26096.25002315  .00118139  00000+0  14838-2 0  9995,2 46129  53.0462 122.6256 0003717 338.1411 300.0425 15.58844704  5811
STARLINK-1624,46130,53.0385,0.0008957,15.77285849,332.11862514132827,344.150153708345,1 46130U 20057P   26096.25002315  .00181122  00000+0  10584-2 0  9993,2 46130  53.0385  95.6082 0008957  59.6547 327.4883 15.77285849  5966
